[{"OBJECT_NAME":"ITAMSAT (IO-26)","OBJECT_ID":"1993-061D","EPOCH":"2026-03-09T18:51:40.558176","MEAN_MOTION":14.31337175,"ECCENTRICITY":0.00091856,"INCLINATION":98.6929,"RA_OF_ASC_NODE":136.1036,"ARG_OF_PERICENTER":22.8845,"MEAN_ANOMALY":337.2746,"EPHEMERIS_TYPE":0,"CLASSIFICATION_TYPE":"U","NORAD_CAT_ID":22826,"ELEMENT_SET_NO":999,"REV_AT_EPOCH":69309,"BSTAR":7.3937292e-5,"MEAN_MOTION_DOT":1.51e-6,"MEAN_MOTION_DDOT":0},{"OBJECT_NAME":"CZ-6A DEB","OBJECT_ID":"2024-140SN","EPOCH":"2026-03-09T11:07:25.042656","MEAN_MOTION":14.44311038,"ECCENTRICITY":0.00864393,"INCLINATION":88.4216,"RA_OF_ASC_NODE":243.5275,"ARG_OF_PERICENTER":339.9379,"MEAN_ANOMALY":19.8432,"EPHEMERIS_TYPE":0,"CLASSIFICATION_TYPE":"U","NORAD_CAT_ID":61277,"ELEMENT_SET_NO":999,"REV_AT_EPOCH":8064,"BSTAR":0.0014574275,"MEAN_MOTION_DOT":5.262e-5,"MEAN_MOTION_DDOT":0}]
